[{"OBJECT_NAME":"ISTSAT-1","OBJECT_ID":"2024-128D","EPOCH":"2026-03-09T22:00:43.506144","MEAN_MOTION":15.10231455,"ECCENTRICITY":0.00491528,"INCLINATION":61.9882,"RA_OF_ASC_NODE":196.777,"ARG_OF_PERICENTER":111.8391,"MEAN_ANOMALY":248.7942,"EPHEMERIS_TYPE":0,"CLASSIFICATION_TYPE":"U","NORAD_CAT_ID":60238,"ELEMENT_SET_NO":999,"REV_AT_EPOCH":9146,"BSTAR":0.00064802971,"MEAN_MOTION_DOT":0.0001075,"MEAN_MOTION_DDOT":0},{"OBJECT_NAME":"STARLINK-34447","OBJECT_ID":"2025-142Q","EPOCH":"2026-03-09T22:00:01.999584","MEAN_MOTION":14.98332922,"ECCENTRICITY":0.00031575,"INCLINATION":70.0005,"RA_OF_ASC_NODE":313.8815,"ARG_OF_PERICENTER":279.4366,"MEAN_ANOMALY":91.7096,"EPHEMERIS_TYPE":0,"CLASSIFICATION_TYPE":"U","NORAD_CAT_ID":64710,"ELEMENT_SET_NO":999,"REV_AT_EPOCH":575,"BSTAR":-0.00065258092,"MEAN_MOTION_DOT":-7.871e-5,"MEAN_MOTION_DDOT":0}]
